[{"OBJECT_NAME":"STARLINK-35163","OBJECT_ID":"2025-198R","EPOCH":"2026-03-06T14:23:13.688736","MEAN_MOTION":15.30197881,"ECCENTRICITY":0.00014586,"INCLINATION":53.156,"RA_OF_ASC_NODE":285.5866,"ARG_OF_PERICENTER":92.6259,"MEAN_ANOMALY":267.4908,"EPHEMERIS_TYPE":0,"CLASSIFICATION_TYPE":"U","NORAD_CAT_ID":65507,"ELEMENT_SET_NO":999,"REV_AT_EPOCH":2814,"BSTAR":0.0016308398,"MEAN_MOTION_DOT":0.00048253,"MEAN_MOTION_DDOT":0},{"OBJECT_NAME":"STARLINK-35119","OBJECT_ID":"2025-198S","EPOCH":"2026-03-06T00:30:27.302112","MEAN_MOTION":15.30194498,"ECCENTRICITY":0.00010481,"INCLINATION":53.1585,"RA_OF_ASC_NODE":288.3786,"ARG_OF_PERICENTER":77.8499,"MEAN_ANOMALY":282.2619,"EPHEMERIS_TYPE":0,"CLASSIFICATION_TYPE":"U","NORAD_CAT_ID":65508,"ELEMENT_SET_NO":999,"REV_AT_EPOCH":2805,"BSTAR":0.00093212056,"MEAN_MOTION_DOT":0.00027344,"MEAN_MOTION_DDOT":0},{"OBJECT_NAME":"STARLINK-35168","OBJECT_ID":"2025-198T","EPOCH":"2026-03-06T07:39:39.639456","MEAN_MOTION":15.30207095,"ECCENTRICITY":0.00012005,"INCLINATION":53.1586,"RA_OF_ASC_NODE":286.679,"ARG_OF_PERICENTER":91.5273,"MEAN_ANOMALY":268.5865,"EPHEMERIS_TYPE":0,"CLASSIFICATION_TYPE":"U","NORAD_CAT_ID":65509,"ELEMENT_SET_NO":999,"REV_AT_EPOCH":2810,"BSTAR":0.00063327274,"MEAN_MOTION_DOT":0.00018447,"MEAN_MOTION_DDOT":0},{"OBJECT_NAME":"STARLINK-35122","OBJECT_ID":"2025-198U","EPOCH":"2026-03-06T13:36:07.236288","MEAN_MOTION":15.30224374,"ECCENTRICITY":0.00019334,"INCLINATION":53.1583,"RA_OF_ASC_NODE":285.3845,"ARG_OF_PERICENTER":97.8737,"MEAN_ANOMALY":262.2483,"EPHEMERIS_TYPE":0,"CLASSIFICATION_TYPE":"U","NORAD_CAT_ID":65510,"ELEMENT_SET_NO":999,"REV_AT_EPOCH":2814,"BSTAR":0.0012542422,"MEAN_MOTION_DOT":0.00037002,"MEAN_MOTION_DDOT":0},{"OBJECT_NAME":"STARLINK-35124","OBJECT_ID":"2025-198V","EPOCH":"2026-03-06T14:51:56.307744","MEAN_MOTION":15.30233571,"ECCENTRICITY":0.00020565,"INCLINATION":53.1565,"RA_OF_ASC_NODE":284.9971,"ARG_OF_PERICENTER":315.1081,"MEAN_ANOMALY":44.9754,"EPHEMERIS_TYPE":0,"CLASSIFICATION_TYPE":"U","NORAD_CAT_ID":65511,"ELEMENT_SET_NO":999,"REV_AT_EPOCH":2814,"BSTAR":0.0014068272,"MEAN_MOTION_DOT":0.00041585,"MEAN_MOTION_DDOT":0},{"OBJECT_NAME":"STARLINK-35149","OBJECT_ID":"2025-198W","EPOCH":"2026-03-06T14:42:49.184064","MEAN_MOTION":15.30215421,"ECCENTRICITY":0.00018075,"INCLINATION":53.1569,"RA_OF_ASC_NODE":284.9573,"ARG_OF_PERICENTER":96.5215,"MEAN_ANOMALY":263.5991,"EPHEMERIS_TYPE":0,"CLASSIFICATION_TYPE":"U","NORAD_CAT_ID":65512,"ELEMENT_SET_NO":999,"REV_AT_EPOCH":2815,"BSTAR":0.0012339983,"MEAN_MOTION_DOT":0.00036385,"MEAN_MOTION_DDOT":0},{"OBJECT_NAME":"STARLINK-35019","OBJECT_ID":"2025-198X","EPOCH":"2026-03-06T00:12:10.182816","MEAN_MOTION":15.30200562,"ECCENTRICITY":0.00012368,"INCLINATION":53.1583,"RA_OF_ASC_NODE":288.2931,"ARG_OF_PERICENTER":94.3905,"MEAN_ANOMALY":265.7237,"EPHEMERIS_TYPE":0,"CLASSIFICATION_TYPE":"U","NORAD_CAT_ID":65513,"ELEMENT_SET_NO":999,"REV_AT_EPOCH":2805,"BSTAR":-0.00019634068,"MEAN_MOTION_DOT":-6.17e-5,"MEAN_MOTION_DDOT":0},{"OBJECT_NAME":"STARLINK-35026","OBJECT_ID":"2025-198Y","EPOCH":"2026-03-06T00:33:27.751968","MEAN_MOTION":15.30210787,"ECCENTRICITY":0.00010443,"INCLINATION":53.1595,"RA_OF_ASC_NODE":288.3874,"ARG_OF_PERICENTER":83.8791,"MEAN_ANOMALY":276.2329,"EPHEMERIS_TYPE":0,"CLASSIFICATION_TYPE":"U","NORAD_CAT_ID":65514,"ELEMENT_SET_NO":999,"REV_AT_EPOCH":2805,"BSTAR":0.0008277426,"MEAN_MOTION_DOT":0.00024244,"MEAN_MOTION_DDOT":0},{"OBJECT_NAME":"STARLINK-35241","OBJECT_ID":"2025-198Z","EPOCH":"2026-03-06T00:04:34.088448","MEAN_MOTION":15.30199384,"ECCENTRICITY":0.00010566,"INCLINATION":53.1591,"RA_OF_ASC_NODE":288.2615,"ARG_OF_PERICENTER":68.7516,"MEAN_ANOMALY":291.3598,"EPHEMERIS_TYPE":0,"CLASSIFICATION_TYPE":"U","NORAD_CAT_ID":65515,"ELEMENT_SET_NO":999,"REV_AT_EPOCH":2805,"BSTAR":-0.00030259232,"MEAN_MOTION_DOT":-9.31e-5,"MEAN_MOTION_DDOT":0},{"OBJECT_NAME":"STARLINK-35216","OBJECT_ID":"2025-198AA","EPOCH":"2026-03-06T14:20:11.424480","MEAN_MOTION":15.30192942,"ECCENTRICITY":7.418e-5,"INCLINATION":53.1563,"RA_OF_ASC_NODE":285.5679,"ARG_OF_PERICENTER":59.9329,"MEAN_ANOMALY":300.1745,"EPHEMERIS_TYPE":0,"CLASSIFICATION_TYPE":"U","NORAD_CAT_ID":65516,"ELEMENT_SET_NO":999,"REV_AT_EPOCH":2814,"BSTAR":0.0010115246,"MEAN_MOTION_DOT":0.00029713,"MEAN_MOTION_DDOT":0},{"OBJECT_NAME":"STARLINK-35228","OBJECT_ID":"2025-198AB","EPOCH":"2026-03-06T15:02:34.142784","MEAN_MOTION":15.30215604,"ECCENTRICITY":0.00010569,"INCLINATION":53.1566,"RA_OF_ASC_NODE":285.0383,"ARG_OF_PERICENTER":100.9034,"MEAN_ANOMALY":259.2086,"EPHEMERIS_TYPE":0,"CLASSIFICATION_TYPE":"U","NORAD_CAT_ID":65517,"ELEMENT_SET_NO":999,"REV_AT_EPOCH":2815,"BSTAR":0.0010126345,"MEAN_MOTION_DOT":0.00029767,"MEAN_MOTION_DDOT":0},{"OBJECT_NAME":"STARLINK-35232","OBJECT_ID":"2025-198AC","EPOCH":"2026-03-06T00:46:58.433664","MEAN_MOTION":15.30208725,"ECCENTRICITY":6.961e-5,"INCLINATION":53.1557,"RA_OF_ASC_NODE":287.7355,"ARG_OF_PERICENTER":57.4117,"MEAN_ANOMALY":302.6951,"EPHEMERIS_TYPE":0,"CLASSIFICATION_TYPE":"U","NORAD_CAT_ID":65518,"ELEMENT_SET_NO":999,"REV_AT_EPOCH":2806,"BSTAR":0.0011667823,"MEAN_MOTION_DOT":0.00034367,"MEAN_MOTION_DDOT":0},{"OBJECT_NAME":"STARLINK-35164","OBJECT_ID":"2025-198AD","EPOCH":"2026-03-05T21:43:25.435200","MEAN_MOTION":15.30209055,"ECCENTRICITY":6.066e-5,"INCLINATION":53.1567,"RA_OF_ASC_NODE":288.3555,"ARG_OF_PERICENTER":73.8655,"MEAN_ANOMALY":286.2413,"EPHEMERIS_TYPE":0,"CLASSIFICATION_TYPE":"U","NORAD_CAT_ID":65519,"ELEMENT_SET_NO":999,"REV_AT_EPOCH":2804,"BSTAR":0.00064297694,"MEAN_MOTION_DOT":0.00018737,"MEAN_MOTION_DDOT":0},{"OBJECT_NAME":"STARLINK-35112","OBJECT_ID":"2025-200A","EPOCH":"2026-03-06T14:36:40.513536","MEAN_MOTION":15.05661014,"ECCENTRICITY":4.363e-5,"INCLINATION":97.6027,"RA_OF_ASC_NODE":136.7025,"ARG_OF_PERICENTER":66.2481,"MEAN_ANOMALY":293.8791,"EPHEMERIS_TYPE":0,"CLASSIFICATION_TYPE":"U","NORAD_CAT_ID":65520,"ELEMENT_SET_NO":999,"REV_AT_EPOCH":2866,"BSTAR":0.00044811362,"MEAN_MOTION_DOT":6.413e-5,"MEAN_MOTION_DDOT":0},{"OBJECT_NAME":"STARLINK-35187","OBJECT_ID":"2025-200B","EPOCH":"2026-03-06T15:20:33.159552","MEAN_MOTION":15.05638651,"ECCENTRICITY":0.00012061,"INCLINATION":97.6029,"RA_OF_ASC_NODE":136.8194,"ARG_OF_PERICENTER":136.8224,"MEAN_ANOMALY":223.3097,"EPHEMERIS_TYPE":0,"CLASSIFICATION_TYPE":"U","NORAD_CAT_ID":65521,"ELEMENT_SET_NO":999,"REV_AT_EPOCH":2867,"BSTAR":0.00095576767,"MEAN_MOTION_DOT":0.00013752,"MEAN_MOTION_DDOT":0},{"OBJECT_NAME":"STARLINK-35188","OBJECT_ID":"2025-200C","EPOCH":"2026-03-06T03:46:43.777632","MEAN_MOTION":15.05652408,"ECCENTRICITY":7.606e-5,"INCLINATION":97.602,"RA_OF_ASC_NODE":136.3819,"ARG_OF_PERICENTER":87.4535,"MEAN_ANOMALY":272.6779,"EPHEMERIS_TYPE":0,"CLASSIFICATION_TYPE":"U","NORAD_CAT_ID":65522,"ELEMENT_SET_NO":999,"REV_AT_EPOCH":2860,"BSTAR":0.00026623768,"MEAN_MOTION_DOT":3.783e-5,"MEAN_MOTION_DDOT":0},{"OBJECT_NAME":"STARLINK-35078","OBJECT_ID":"2025-200D","EPOCH":"2026-03-06T11:01:21.518112","MEAN_MOTION":15.05656084,"ECCENTRICITY":0.00010328,"INCLINATION":97.6029,"RA_OF_ASC_NODE":136.5965,"ARG_OF_PERICENTER":134.4178,"MEAN_ANOMALY":225.7133,"EPHEMERIS_TYPE":0,"CLASSIFICATION_TYPE":"U","NORAD_CAT_ID":65523,"ELEMENT_SET_NO":999,"REV_AT_EPOCH":2864,"BSTAR":0.00045366726,"MEAN_MOTION_DOT":6.492e-5,"MEAN_MOTION_DDOT":0},{"OBJECT_NAME":"STARLINK-35055","OBJECT_ID":"2025-200E","EPOCH":"2026-03-06T10:49:23.845152","MEAN_MOTION":15.05658103,"ECCENTRICITY":9.692e-5,"INCLINATION":97.6033,"RA_OF_ASC_NODE":136.6082,"ARG_OF_PERICENTER":119.0509,"MEAN_ANOMALY":241.0815,"EPHEMERIS_TYPE":0,"CLASSIFICATION_TYPE":"U","NORAD_CAT_ID":65524,"ELEMENT_SET_NO":999,"REV_AT_EPOCH":2864,"BSTAR":0.00038461459,"MEAN_MOTION_DOT":5.494e-5,"MEAN_MOTION_DDOT":0},{"OBJECT_NAME":"STARLINK-35057","OBJECT_ID":"2025-200F","EPOCH":"2026-03-06T13:12:56.313792","MEAN_MOTION":15.05657305,"ECCENTRICITY":6.241e-5,"INCLINATION":97.603,"RA_OF_ASC_NODE":136.6285,"ARG_OF_PERICENTER":90.9487,"MEAN_ANOMALY":269.1812,"EPHEMERIS_TYPE":0,"CLASSIFICATION_TYPE":"U","NORAD_CAT_ID":65525,"ELEMENT_SET_NO":999,"REV_AT_EPOCH":2865,"BSTAR":0.00051342151,"MEAN_MOTION_DOT":7.356e-5,"MEAN_MOTION_DDOT":0},{"OBJECT_NAME":"STARLINK-34674","OBJECT_ID":"2025-200G","EPOCH":"2026-03-06T10:21:31.335552","MEAN_MOTION":15.05641753,"ECCENTRICITY":3.472e-5,"INCLINATION":97.6013,"RA_OF_ASC_NODE":136.6339,"ARG_OF_PERICENTER":115.3847,"MEAN_ANOMALY":244.7416,"EPHEMERIS_TYPE":0,"CLASSIFICATION_TYPE":"U","NORAD_CAT_ID":65526,"ELEMENT_SET_NO":999,"REV_AT_EPOCH":2865,"BSTAR":0.00077161427,"MEAN_MOTION_DOT":0.00011088,"MEAN_MOTION_DDOT":0},{"OBJECT_NAME":"STARLINK-35067","OBJECT_ID":"2025-200H","EPOCH":"2026-03-06T14:28:42.413088","MEAN_MOTION":15.05656427,"ECCENTRICITY":9.973e-5,"INCLINATION":97.6028,"RA_OF_ASC_NODE":136.7104,"ARG_OF_PERICENTER":74.7817,"MEAN_ANOMALY":285.352,"EPHEMERIS_TYPE":0,"CLASSIFICATION_TYPE":"U","NORAD_CAT_ID":65527,"ELEMENT_SET_NO":999,"REV_AT_EPOCH":2866,"BSTAR":0.00052208589,"MEAN_MOTION_DOT":7.482e-5,"MEAN_MOTION_DDOT":0},{"OBJECT_NAME":"STARLINK-35063","OBJECT_ID":"2025-200J","EPOCH":"2026-03-06T05:18:26.418240","MEAN_MOTION":15.05659642,"ECCENTRICITY":4.071e-5,"INCLINATION":97.6027,"RA_OF_ASC_NODE":136.4531,"ARG_OF_PERICENTER":97.6523,"MEAN_ANOMALY":262.475,"EPHEMERIS_TYPE":0,"CLASSIFICATION_TYPE":"U","NORAD_CAT_ID":65528,"ELEMENT_SET_NO":999,"REV_AT_EPOCH":2861,"BSTAR":0.00044728093,"MEAN_MOTION_DOT":6.401e-5,"MEAN_MOTION_DDOT":0},{"OBJECT_NAME":"STARLINK-35077","OBJECT_ID":"2025-200K","EPOCH":"2026-03-06T04:46:31.836576","MEAN_MOTION":15.05653177,"ECCENTRICITY":4.988e-5,"INCLINATION":97.6023,"RA_OF_ASC_NODE":136.3258,"ARG_OF_PERICENTER":113.5812,"MEAN_ANOMALY":246.5467,"EPHEMERIS_TYPE":0,"CLASSIFICATION_TYPE":"U","NORAD_CAT_ID":65529,"ELEMENT_SET_NO":999,"REV_AT_EPOCH":2860,"BSTAR":0.00041449282,"MEAN_MOTION_DOT":5.925e-5,"MEAN_MOTION_DDOT":0}]
